[{"OBJECT_NAME":"STARLINK-1807","OBJECT_ID":"2020-073AN","EPOCH":"2026-03-09T15:34:45.873120","MEAN_MOTION":15.23578372,"ECCENTRICITY":0.0005019,"INCLINATION":53.0589,"RA_OF_ASC_NODE":228.5688,"ARG_OF_PERICENTER":167.7565,"MEAN_ANOMALY":192.3554,"EPHEMERIS_TYPE":0,"CLASSIFICATION_TYPE":"U","NORAD_CAT_ID":46706,"ELEMENT_SET_NO":999,"REV_AT_EPOCH":29731,"BSTAR":0.0017212,"MEAN_MOTION_DOT":0.00041618,"MEAN_MOTION_DDOT":0},{"OBJECT_NAME":"BANDWAGON-4 OBJECT D","OBJECT_ID":"2025-248D","EPOCH":"2026-03-08T15:55:23.357856","MEAN_MOTION":15.20246176,"ECCENTRICITY":0.0005553,"INCLINATION":45.4053,"RA_OF_ASC_NODE":299.733,"ARG_OF_PERICENTER":216.9625,"MEAN_ANOMALY":143.088,"EPHEMERIS_TYPE":0,"CLASSIFICATION_TYPE":"U","NORAD_CAT_ID":66296,"ELEMENT_SET_NO":999,"REV_AT_EPOCH":1922,"BSTAR":0.00048956709,"MEAN_MOTION_DOT":0.00010544,"MEAN_MOTION_DDOT":0}]
