STARLINK-1807           
1 46706U 20073AN  26068.64914205  .00041618  00000+0  17212-2 0  9992
2 46706  53.0589 228.5688 0005019 167.7565 192.3554 15.23578372297310
BANDWAGON-4 OBJECT D    
1 66296U 25248D   26067.66346479  .00010544  00000+0  48957-3 0  9995
2 66296  45.4053 299.7330 0005553 216.9625 143.0880 15.20246176 19226
